start=new Date('2022-07-25T00:00:00.000Z').valueOf();
sats=[{"NORAD_CAT_ID":"52833","ECCENTRICITY":"0.00013660","OBJECT_NAME":"STARLINK-4086","APOAPSIS":"410.528","COUNTRY_CODE":"US","MEAN_MOTION_DOT":"-0.01115804","MEAN_ANOMALY":"76.5203","RCS_SIZE":"LARGE","REF_FRAME":"TEME","ARG_OF_PERICENTER":"54.9274","DECAY_DATE":null,"EPHEMERIS_TYPE":"0","RA_OF_ASC_NODE":"220.4136","ELEMENT_SET_NO":"999","CLASSIFICATION_TYPE":"U","OBJECT_ID":"2022-062D","EPOCH":"2022-07-24T22:00:00.999936","BSTAR":"-0.01985400000000","LAUNCH_DATE":"2022-06-17","GP_ID":"208802357","TLE_LINE1":"1 52833U 22062D   22205.91667824 -.01115804  00000-0 -19854-1 0  9997","SEMIMAJOR_AXIS":"6787.736","PERIAPSIS":"408.673","TLE_LINE2":"2 52833  53.2173 220.4136 0001366  54.9274  76.5203 15.52442033  1305","PERIOD":"92.757","INCLINATION":"53.2173","MEAN_MOTION":"15.52442033","TIME_SYSTEM":"UTC","FILE":"3521124","MEAN_MOTION_DDOT":"0.0000000000000","MEAN_ELEMENT_THEORY":"SGP4","OBJECT_TYPE":"PAYLOAD","CENTER_NAME":"EARTH","SITE":"AFETR","REV_AT_EPOCH":"130"},{"RA_OF_ASC_NODE":"220.4363","EPHEMERIS_TYPE":"0","OBJECT_ID":"2022-062E","ELEMENT_SET_NO":"999","CLASSIFICATION_TYPE":"U","RCS_SIZE":"LARGE","REF_FRAME":"TEME","MEAN_MOTION_DOT":"-0.01116002","MEAN_ANOMALY":"62.8636","DECAY_DATE":null,"ARG_OF_PERICENTER":"70.2149","OBJECT_NAME":"STARLINK-4108","COUNTRY_CODE":"US","APOAPSIS":"410.395","NORAD_CAT_ID":"52834","ECCENTRICITY":"0.00012340","OBJECT_TYPE":"PAYLOAD","CENTER_NAME":"EARTH","MEAN_ELEMENT_THEORY":"SGP4","REV_AT_EPOCH":"130","SITE":"AFETR","TIME_SYSTEM":"UTC","MEAN_MOTION_DDOT":"0.0000000000000","FILE":"3521124","PERIAPSIS":"408.720","INCLINATION":"53.2173","MEAN_MOTION":"15.52456815","TLE_LINE2":"2 52834  53.2173 220.4363 0001234  70.2149  62.8636 15.52456815  1305","PERIOD":"92.756","BSTAR":"-0.01984800000000","LAUNCH_DATE":"2022-06-17","EPOCH":"2022-07-24T22:00:00.999936","TLE_LINE1":"1 52834U 22062E   22205.91667824 -.01116002  00000-0 -19848-1 0  9992","SEMIMAJOR_AXIS":"6787.692","GP_ID":"208802037"},{"CLASSIFICATION_TYPE":"U","ELEMENT_SET_NO":"999","OBJECT_ID":"2022-062F","EPHEMERIS_TYPE":"0","RA_OF_ASC_NODE":"220.4484","ARG_OF_PERICENTER":"61.8582","DECAY_DATE":null,"MEAN_ANOMALY":"72.0357","MEAN_MOTION_DOT":"-0.01115879","REF_FRAME":"TEME","RCS_SIZE":"LARGE","APOAPSIS":"410.417","COUNTRY_CODE":"US","OBJECT_NAME":"STARLINK-4080","ECCENTRICITY":"0.00012970","NORAD_CAT_ID":"52835","SITE":"AFETR","REV_AT_EPOCH":"130","MEAN_ELEMENT_THEORY":"SGP4","CENTER_NAME":"EARTH","OBJECT_TYPE":"PAYLOAD","FILE":"3521124","MEAN_MOTION_DDOT":"0.0000000000000","TIME_SYSTEM":"UTC","PERIOD":"92.756","TLE_LINE2":"2 52835  53.2173 220.4484 0001297  61.8582  72.0357 15.52464051  1300","INCLINATION":"53.2173","MEAN_MOTION":"15.52464051","PERIAPSIS":"408.656","GP_ID":"208802146","SEMIMAJOR_AXIS":"6787.671","TLE_LINE1":"1 52835U 22062F   22205.91667824 -.01115879  00000-0 -19840-1 0  9996","EPOCH":"2022-07-24T22:00:00.999936","LAUNCH_DATE":"2022-06-17","BSTAR":"-0.01984000000000"},{"NORAD_CAT_ID":"52836","ECCENTRICITY":"0.00013270","OBJECT_NAME":"STARLINK-4043","APOAPSIS":"410.416","COUNTRY_CODE":"US","MEAN_MOTION_DOT":"-0.01115850","MEAN_ANOMALY":"75.8223","RCS_SIZE":"LARGE","REF_FRAME":"TEME","ARG_OF_PERICENTER":"58.8868","DECAY_DATE":null,"EPHEMERIS_TYPE":"0","RA_OF_ASC_NODE":"220.4595","ELEMENT_SET_NO":"999","CLASSIFICATION_TYPE":"U","OBJECT_ID":"2022-062G","EPOCH":"2022-07-24T22:00:00.999936","BSTAR":"-0.01983400000000","LAUNCH_DATE":"2022-06-17","GP_ID":"208801557","TLE_LINE1":"1 52836U 22062G   22205.91667824 -.01115850  00000-0 -19834-1 0  9999","SEMIMAJOR_AXIS":"6787.650","PERIAPSIS":"408.614","TLE_LINE2":"2 52836  53.2173 220.4595 0001327  58.8868  75.8223 15.52471340  1303","PERIOD":"92.755","INCLINATION":"53.2173","MEAN_MOTION":"15.52471340","TIME_SYSTEM":"UTC","FILE":"3521124","MEAN_MOTION_DDOT":"0.0000000000000","MEAN_ELEMENT_THEORY":"SGP4","CENTER_NAME":"EARTH","OBJECT_TYPE":"PAYLOAD","SITE":"AFETR","REV_AT_EPOCH":"130"},{"TIME_SYSTEM":"UTC","MEAN_MOTION_DDOT":"0.0000000000000","FILE":"3521124","OBJECT_TYPE":"PAYLOAD","CENTER_NAME":"EARTH","MEAN_ELEMENT_THEORY":"SGP4","REV_AT_EPOCH":"130","SITE":"AFETR","BSTAR":"-0.01981400000000","LAUNCH_DATE":"2022-06-17","EPOCH":"2022-07-24T22:00:00.999936","TLE_LINE1":"1 52837U 22062H   22205.91667824 -.01115670  00000-0 -19814-1 0  9998","SEMIMAJOR_AXIS":"6787.587","GP_ID":"208802263","PERIAPSIS":"408.445","MEAN_MOTION":"15.52492904","INCLINATION":"53.2174","TLE_LINE2":"2 52837  53.2174 220.4814 0001484  47.5809  89.5739 15.52492904  1306","PERIOD":"92.754","RCS_SIZE":"LARGE","REF_FRAME":"TEME","MEAN_MOTION_DOT":"-0.01115670","MEAN_ANOMALY":"89.5739","DECAY_DATE":null,"ARG_OF_PERICENTER":"47.5809","RA_OF_ASC_NODE":"220.4814","EPHEMERIS_TYPE":"0","OBJECT_ID":"2022-062H","ELEMENT_SET_NO":"999","CLASSIFICATION_TYPE":"U","NORAD_CAT_ID":"52837","ECCENTRICITY":"0.00014840","OBJECT_NAME":"STARLINK-4036","COUNTRY_CODE":"US","APOAPSIS":"410.460"},{"ELEMENT_SET_NO":"999","CLASSIFICATION_TYPE":"U","OBJECT_ID":"2022-062J","EPHEMERIS_TYPE":"0","RA_OF_ASC_NODE":"220.4677","ARG_OF_PERICENTER":"88.5977","DECAY_DATE":null,"MEAN_MOTION_DOT":"-0.01116132","MEAN_ANOMALY":"46.9266","RCS_SIZE":"LARGE","REF_FRAME":"TEME","APOAPSIS":"410.298","COUNTRY_CODE":"US","OBJECT_NAME":"STARLINK-4092","NORAD_CAT_ID":"52838","ECCENTRICITY":"0.00011850","SITE":"AFETR","REV_AT_EPOCH":"130","MEAN_ELEMENT_THEORY":"SGP4","CENTER_NAME":"EARTH","OBJECT_TYPE":"PAYLOAD","FILE":"3521124","MEAN_MOTION_DDOT":"0.0000000000000","TIME_SYSTEM":"UTC","TLE_LINE2":"2 52838  53.2173 220.4677 0001185  88.5977  46.9266 15.52478783  1303","PERIOD":"92.755","INCLINATION":"53.2173","MEAN_MOTION":"15.52478783","PERIAPSIS":"408.689","GP_ID":"208801672","SEMIMAJOR_AXIS":"6787.628","TLE_LINE1":"1 52838U 22062J   22205.91667824 -.01116132  00000-0 -19835-1 0  9996","EPOCH":"2022-07-24T22:00:00.999936","BSTAR":"-0.01983500000000","LAUNCH_DATE":"2022-06-17"},{"MEAN_ELEMENT_THEORY":"SGP4","CENTER_NAME":"EARTH","OBJECT_TYPE":"PAYLOAD","SITE":"AFETR","REV_AT_EPOCH":"130","TIME_SYSTEM":"UTC","FILE":"3521124","MEAN_MOTION_DDOT":"0.0000000000000","PERIAPSIS":"408.467","PERIOD":"92.753","TLE_LINE2":"2 52839  53.2174 220.5043 0001388  54.1917  84.5930 15.52507612  1301","MEAN_MOTION":"15.52507612","INCLINATION":"53.2174","EPOCH":"2022-07-24T22:00:00.999936","LAUNCH_DATE":"2022-06-17","BSTAR":"-0.01980600000000","GP_ID":"208801780","SEMIMAJOR_AXIS":"6787.544","TLE_LINE1":"1 52839U 22062K   22205.91667824 -.01115773  00000-0 -19806-1 0  9995","EPHEMERIS_TYPE":"0","RA_OF_ASC_NODE":"220.5043","CLASSIFICATION_TYPE":"U","ELEMENT_SET_NO":"999","OBJECT_ID":"2022-062K","MEAN_ANOMALY":"84.5930","MEAN_MOTION_DOT":"-0.01115773","REF_FRAME":"TEME","RCS_SIZE":"LARGE","ARG_OF_PERICENTER":"54.1917","DECAY_DATE":null,"OBJECT_NAME":"STARLINK-4048","APOAPSIS":"410.351","COUNTRY_CODE":"US","ECCENTRICITY":"0.00013880","NORAD_CAT_ID":"52839"},{"PERIOD":"92.754","TLE_LINE2":"2 52840  53.2174 220.4926 0001230  72.4857  65.4840 15.52500478  1305","INCLINATION":"53.2174","MEAN_MOTION":"15.52500478","PERIAPSIS":"408.595","GP_ID":"208801922","TLE_LINE1":"1 52840U 22062L   22205.91667824 -.01116024  00000-0 -19817-1 0  9999","SEMIMAJOR_AXIS":"6787.565","EPOCH":"2022-07-24T22:00:00.999936","LAUNCH_DATE":"2022-06-17","BSTAR":"-0.01981700000000","SITE":"AFETR","REV_AT_EPOCH":"130","MEAN_ELEMENT_THEORY":"SGP4","CENTER_NAME":"EARTH","OBJECT_TYPE":"PAYLOAD","FILE":"3521124","MEAN_MOTION_DDOT":"0.0000000000000","TIME_SYSTEM":"UTC","APOAPSIS":"410.265","COUNTRY_CODE":"US","OBJECT_NAME":"STARLINK-4049","ECCENTRICITY":"0.00012300","NORAD_CAT_ID":"52840","CLASSIFICATION_TYPE":"U","ELEMENT_SET_NO":"999","OBJECT_ID":"2022-062L","EPHEMERIS_TYPE":"0","RA_OF_ASC_NODE":"220.4926","ARG_OF_PERICENTER":"72.4857","DECAY_DATE":null,"MEAN_ANOMALY":"65.4840","MEAN_MOTION_DOT":"-0.01116024","REF_FRAME":"TEME","RCS_SIZE":"LARGE"},{"OBJECT_TYPE":"PAYLOAD","CENTER_NAME":"EARTH","MEAN_ELEMENT_THEORY":"SGP4","REV_AT_EPOCH":"130","SITE":"AFETR","TIME_SYSTEM":"UTC","MEAN_MOTION_DDOT":"0.0000000000000","FILE":"3521124","PERIAPSIS":"408.157","INCLINATION":"53.2174","MEAN_MOTION":"15.52529338","TLE_LINE2":"2 52841  53.2174 220.5390 0001752  35.9737 105.2552 15.52529338  1301","PERIOD":"92.752","BSTAR":"-0.01978200000000","LAUNCH_DATE":"2022-06-17","EPOCH":"2022-07-24T22:00:00.999936","TLE_LINE1":"1 52841U 22062M   22205.91667824 -.01115460  00000-0 -19782-1 0  9994","SEMIMAJOR_AXIS":"6787.481","GP_ID":"208802358","RA_OF_ASC_NODE":"220.5390","EPHEMERIS_TYPE":"0","OBJECT_ID":"2022-062M","ELEMENT_SET_NO":"999","CLASSIFICATION_TYPE":"U","RCS_SIZE":"MEDIUM","REF_FRAME":"TEME","MEAN_MOTION_DOT":"-0.01115460","MEAN_ANOMALY":"105.2552","DECAY_DATE":null,"ARG_OF_PERICENTER":"35.9737","OBJECT_NAME":"STARLINK-4065","COUNTRY_CODE":"US","APOAPSIS":"410.535","NORAD_CAT_ID":"52841","ECCENTRICITY":"0.00017520"},{"COUNTRY_CODE":"US","APOAPSIS":"410.347","OBJECT_NAME":"STARLINK-4046","ECCENTRICITY":"0.00012870","NORAD_CAT_ID":"52842","OBJECT_ID":"2022-062N","CLASSIFICATION_TYPE":"U","ELEMENT_SET_NO":"999","RA_OF_ASC_NODE":"220.4695","EPHEMERIS_TYPE":"0","DECAY_DATE":null,"ARG_OF_PERICENTER":"63.4332","REF_FRAME":"TEME","RCS_SIZE":"LARGE","MEAN_ANOMALY":"72.9065","MEAN_MOTION_DOT":"-0.01115909","INCLINATION":"53.2173","MEAN_MOTION":"15.52485771","PERIOD":"92.754","TLE_LINE2":"2 52842  53.2173 220.4695 0001287  63.4332  72.9065 15.52485771  1309","PERIAPSIS":"408.599","SEMIMAJOR_AXIS":"6787.608","TLE_LINE1":"1 52842U 22062N   22205.91667824 -.01115909  00000-0 -19825-1 0  9991","GP_ID":"208802038","LAUNCH_DATE":"2022-06-17","BSTAR":"-0.01982500000000","EPOCH":"2022-07-24T22:00:00.999936","REV_AT_EPOCH":"130","SITE":"AFETR","CENTER_NAME":"EARTH","OBJECT_TYPE":"PAYLOAD","MEAN_ELEMENT_THEORY":"SGP4","MEAN_MOTION_DDOT":"0.0000000000000","FILE":"3521124","TIME_SYSTEM":"UTC"}];
